[{"OBJECT_NAME":"IRIDIUM 154","OBJECT_ID":"2018-061F","EPOCH":"2026-03-09T19:28:30.566496","MEAN_MOTION":14.34219109,"ECCENTRICITY":0.00022519,"INCLINATION":86.3916,"RA_OF_ASC_NODE":98.3738,"ARG_OF_PERICENTER":97.8524,"MEAN_ANOMALY":262.2928,"EPHEMERIS_TYPE":0,"CLASSIFICATION_TYPE":"U","NORAD_CAT_ID":43574,"ELEMENT_SET_NO":999,"REV_AT_EPOCH":39916,"BSTAR":1.1681552e-5,"MEAN_MOTION_DOT":5.3e-7,"MEAN_MOTION_DDOT":0},{"OBJECT_NAME":"COSMOS 1867 COOLANT","OBJECT_ID":"1987-060U","EPOCH":"2026-03-09T05:12:38.710080","MEAN_MOTION":14.3385738,"ECCENTRICITY":0.00137586,"INCLINATION":65.0069,"RA_OF_ASC_NODE":290.0125,"ARG_OF_PERICENTER":278.5978,"MEAN_ANOMALY":81.3548,"EPHEMERIS_TYPE":0,"CLASSIFICATION_TYPE":"U","NORAD_CAT_ID":39657,"ELEMENT_SET_NO":999,"REV_AT_EPOCH":62234,"BSTAR":0.00014646944,"MEAN_MOTION_DOT":3.08e-6,"MEAN_MOTION_DDOT":0}]
